[{"OBJECT_NAME":"STARLINK-33850","OBJECT_ID":"2025-085R","EPOCH":"2026-03-09T06:04:37.640352","MEAN_MOTION":15.27577816,"ECCENTRICITY":0.00015246,"INCLINATION":42.998,"RA_OF_ASC_NODE":33.34,"ARG_OF_PERICENTER":287.4513,"MEAN_ANOMALY":72.6172,"EPHEMERIS_TYPE":0,"CLASSIFICATION_TYPE":"U","NORAD_CAT_ID":63679,"ELEMENT_SET_NO":999,"REV_AT_EPOCH":4879,"BSTAR":0.0011759475,"MEAN_MOTION_DOT":0.00032237,"MEAN_MOTION_DDOT":0},{"OBJECT_NAME":"TITAN 3C TRANSTAGE DEB","OBJECT_ID":"1965-082PT","EPOCH":"2026-03-09T13:23:41.116128","MEAN_MOTION":15.28908269,"ECCENTRICITY":0.00104371,"INCLINATION":32.0266,"RA_OF_ASC_NODE":255.1391,"ARG_OF_PERICENTER":172.8339,"MEAN_ANOMALY":187.2474,"EPHEMERIS_TYPE":0,"CLASSIFICATION_TYPE":"U","NORAD_CAT_ID":3462,"ELEMENT_SET_NO":999,"REV_AT_EPOCH":24824,"BSTAR":0.0004444037,"MEAN_MOTION_DOT":0.00012939,"MEAN_MOTION_DDOT":0}]
